[{"OBJECT_NAME":"STARLINK-4006","OBJECT_ID":"2022-053W","EPOCH":"2026-03-09T12:10:24.309984","MEAN_MOTION":15.08844691,"ECCENTRICITY":0.00012152,"INCLINATION":53.2171,"RA_OF_ASC_NODE":154.9392,"ARG_OF_PERICENTER":90.7895,"MEAN_ANOMALY":269.3236,"EPHEMERIS_TYPE":0,"CLASSIFICATION_TYPE":"U","NORAD_CAT_ID":52676,"ELEMENT_SET_NO":999,"REV_AT_EPOCH":21101,"BSTAR":-4.2533277e-5,"MEAN_MOTION_DOT":-9.65e-6,"MEAN_MOTION_DDOT":0},{"OBJECT_NAME":"FENGYUN 1C DEB","OBJECT_ID":"1999-025DMH","EPOCH":"2026-03-08T12:22:59.285280","MEAN_MOTION":14.74467635,"ECCENTRICITY":0.01679532,"INCLINATION":98.8961,"RA_OF_ASC_NODE":332.7174,"ARG_OF_PERICENTER":174.5846,"MEAN_ANOMALY":185.7228,"EPHEMERIS_TYPE":0,"CLASSIFICATION_TYPE":"U","NORAD_CAT_ID":35153,"ELEMENT_SET_NO":999,"REV_AT_EPOCH":98481,"BSTAR":0.00043532495,"MEAN_MOTION_DOT":3.561e-5,"MEAN_MOTION_DDOT":0}]
